NORAD_CAT_ID,OBJECT_NAME,OBJECT_TYPE,EPOCH,MEAN_MOTION,ECCENTRICITY,INCLINATION,RA_OF_ASC_NODE,ARG_OF_PERICENTER,MEAN_ANOMALY,BSTAR,MEAN_MOTION_DOT,MEAN_MOTION_DDOT,TLE_LINE0,TLE_LINE1,TLE_LINE2,SEMIMAJOR_AXIS,PERIOD,APOGEE,PERIGEE,DECAYED
49169.0,STARLINK-3046,PAYLOAD,2024-04-30 13:16:56,14.98342738,0.0003041,70.001,184.2875,278.8058,81.2756,0.00039171,4.585e-05,0.0,0 STARLINK-3046,1 49169U 21082AR  24121.55343556  .00004585  00000-0  39171-3 0  9994,2 49169  70.0010 184.2875 0003041 278.8058  81.2756 14.98342738146100,6950.154,96.106,574.132,569.905,0.0
49169.0,STARLINK-3046,PAYLOAD,2024-04-30 21:17:37,14.9834115,0.0002942,70.0013,183.4457,277.7777,82.3048,0.00028868,3.354e-05,0.0,0 STARLINK-3046,1 49169U 21082AR  24121.88723443  .00003354  00000-0  28868-3 0  9991,2 49169  70.0013 183.4457 0002942 277.7777  82.3048 14.98341150144948,6950.158,96.106,574.068,569.979,0.0
49169.0,STARLINK-3046,PAYLOAD,2024-05-01 10:06:41,14.98340274,0.0002968,70.0012,182.0992,277.2033,82.8788,0.00016957,1.931e-05,0.0,0 STARLINK-3046,1 49169U 21082AR  24122.42131243  .00001931  00000-0  16957-3 0  9998,2 49169  70.0012 182.0992 0002968 277.2033  82.8788 14.98340274146230,6950.161,96.106,574.089,569.963,0.0
49169.0,STARLINK-3046,PAYLOAD,2024-05-01 21:19:38,14.98333891,0.0002989,70.0011,180.921,276.6285,83.4534,2.5016e-05,2.06e-06,0.0,0 STARLINK-3046,1 49169U 21082AR  24122.88863461  .00000206  00000-0  25016-4 0  9993,2 49169  70.0011 180.9210 0002989 276.6285  83.4534 14.98333891145090,6950.181,96.107,574.123,569.968,0.0
49169.0,STARLINK-3046,PAYLOAD,2024-05-02 05:20:18,14.98333153,0.0002977,69.9999,180.0793,275.5445,84.5374,7.0976e-05,7.54e-06,0.0,0 STARLINK-3046,1 49169U 21082AR  24123.22243732  .00000754  00000-0  70976-4 0  9998,2 49169  69.9999 180.0793 0002977 275.5445  84.5374 14.98333153146357,6950.183,96.107,574.117,569.979,0.0
49169.0,STARLINK-3046,PAYLOAD,2024-05-02 13:20:58,14.98329927,0.0003049,69.9995,179.2373,274.7655,85.3155,7.1109e-06,-8e-08,0.0,0 STARLINK-3046,1 49169U 21082AR  24123.55623802 -.00000008  00000-0  71109-5 0  9997,2 49169  69.9995 179.2373 0003049 274.7655  85.3155 14.98329927145193,6950.193,96.107,574.177,569.939,0.0
49169.0,STARLINK-3046,PAYLOAD,2024-05-03 05:22:18,14.9833828,0.00032,69.999,177.5542,274.2738,85.8055,0.00017089,1.947e-05,0.0,0 STARLINK-3046,1 49169U 21082AR  24124.22382763  .00001947  00000-0  17089-3 0  9997,2 49169  69.9990 177.5542 0003200 274.2738  85.8055 14.98338280146505,6950.167,96.106,574.256,569.808,0.0
49169.0,STARLINK-3046,PAYLOAD,2024-05-03 13:22:58,14.98343499,0.0003187,69.9991,176.7123,273.6861,86.3934,0.00019665,2.255e-05,0.0,0 STARLINK-3046,1 49169U 21082AR  24124.55762309  .00002255  00000-0  19665-3 0  9996,2 49169  69.9991 176.7123 0003187 273.6861  86.3934 14.98343499145347,6950.151,96.106,574.231,569.801,0.0
49169.0,STARLINK-3046,PAYLOAD,2024-05-03 21:23:39,14.98330104,0.0002892,70.0019,175.8707,275.4773,84.6056,4.4408e-05,4.37e-06,0.0,0 STARLINK-3046,1 49169U 21082AR  24124.89143242  .00000437  00000-0  44408-4 0  9996,2 49169  70.0019 175.8707 0002892 275.4773  84.6056 14.98330104145393,6950.193,96.107,574.068,570.048,0.0
49169.0,STARLINK-3046,PAYLOAD,2024-05-04 05:24:20,14.98321943,0.0002959,70.0007,175.0297,274.0126,86.0695,5.6767e-05,5.84e-06,0.0,0 STARLINK-3046,1 49169U 21082AR  24125.22524062  .00000584  00000-0  56767-4 0  9991,2 49169  70.0007 175.0297 0002959 274.0126  86.0695 14.98321943146653,6950.218,96.108,574.139,570.026,0.0
49169.0,STARLINK-3046,PAYLOAD,2024-05-05 05:26:21,14.98329518,0.0003201,69.9987,172.5048,270.6181,89.4611,-2.9428e-06,-1.28e-06,0.0,0 STARLINK-3046,1 49169U 21082AR  24126.22664184 -.00000128  00000-0 -29428-5 0  9993,2 49169  69.9987 172.5048 0003201 270.6181  89.4611 14.98329518146805,6950.194,96.107,574.284,569.835,0.0
49169.0,STARLINK-3046,PAYLOAD,2024-05-05 13:27:02,14.98332869,0.0003148,69.9989,171.663,271.8343,88.2455,3.0851e-05,2.75e-06,0.0,0 STARLINK-3046,1 49169U 21082AR  24126.56043995  .00000275  00000-0  30851-4 0  9993,2 49169  69.9989 171.6630 0003148 271.8343  88.2455 14.98332869145644,6950.184,96.107,574.237,569.861,0.0
49169.0,STARLINK-3046,PAYLOAD,2024-05-05 19:51:34,14.98335213,0.0003155,69.9988,170.9898,271.5227,88.557,6.6843e-05,7.05e-06,0.0,0 STARLINK-3046,1 49169U 21082AR  24126.82747794  .00000705  00000-0  66843-4 0  9998,2 49169  69.9988 170.9898 0003155 271.5227  88.5570 14.98335213145688,6950.177,96.107,574.235,569.849,0.0
49169.0,STARLINK-3046,PAYLOAD,2024-05-06 05:28:22,14.98333872,0.0003174,69.9998,169.9798,270.5749,89.5046,0.00046122,5.415e-05,0.0,0 STARLINK-3046,1 49169U 21082AR  24127.22804136  .00005415  00000-0  46122-3 0  9997,2 49169  69.9998 169.9798 0003174 270.5749  89.5046 14.98333872146954,6950.181,96.107,574.252,569.84,0.0
49169.0,STARLINK-3046,PAYLOAD,2024-05-06 11:52:54,14.98341777,0.0003251,70.0001,169.3064,272.9322,87.1465,0.00061051,7.201e-05,0.0,0 STARLINK-3046,1 49169U 21082AR  24127.49507983  .00007201  00000-0  61051-3 0  9999,2 49169  70.0001 169.3064 0003251 272.9322  87.1465 14.98341777145783,6950.156,96.106,574.281,569.762,0.0
49169.0,STARLINK-3046,PAYLOAD,2024-05-06 19:53:34,14.98344171,0.0003061,70.0003,168.4644,270.5948,89.4861,0.00042314,4.961e-05,0.0,0 STARLINK-3046,1 49169U 21082AR  24127.82887723  .00004961  00000-0  42314-3 0  9990,2 49169  70.0003 168.4644 0003061 270.5948  89.4861 14.98344171145838,6950.149,96.106,574.142,569.887,0.0
49169.0,STARLINK-3046,PAYLOAD,2024-05-07 05:30:23,14.98343144,0.0003057,70.0001,167.4547,269.2546,90.8262,0.00039553,4.631e-05,0.0,0 STARLINK-3046,1 49169U 21082AR  24128.22943592  .00004631  00000-0  39553-3 0  9997,2 49169  70.0001 167.4547 0003057 269.2546  90.8262 14.98343144147103,6950.152,96.106,574.142,569.893,0.0
49169.0,STARLINK-3046,PAYLOAD,2024-05-07 11:54:55,14.98341423,0.0003063,70.0001,166.7814,269.4182,90.6626,0.00027655,3.209e-05,0.0,0 STARLINK-3046,1 49169U 21082AR  24128.49647460  .00003209  00000-0  27655-3 0  9991,2 49169  70.0001 166.7814 0003063 269.4182  90.6626 14.98341423145936,6950.158,96.106,574.151,569.894,0.0
49169.0,STARLINK-3046,PAYLOAD,2024-05-08 05:32:24,14.98332535,0.000303,69.9999,164.93,268.1266,91.9546,0.00015388,1.744e-05,0.0,0 STARLINK-3046,1 49169U 21082AR  24129.23083639  .00001744  00000-0  15388-3 0  9998,2 49169  69.9999 164.9300 0003030 268.1266  91.9546 14.98332535147258,6950.185,96.107,574.156,569.944,0.0
49169.0,STARLINK-3046,PAYLOAD,2024-05-08 11:56:56,14.9833541,0.0003039,69.999,164.2568,267.3981,92.683,5.7851e-05,5.97e-06,0.0,0 STARLINK-3046,1 49169U 21082AR  24129.49787506  .00000597  00000-0  57851-4 0  9997,2 49169  69.9990 164.2568 0003039 267.3981  92.6830 14.98335410146081,6950.176,96.107,574.153,569.929,0.0
49169.0,STARLINK-3046,PAYLOAD,2024-05-08 19:57:36,14.98335601,0.0003049,69.9988,163.4146,269.9717,90.1092,7.5366e-05,8.06e-06,0.0,0 STARLINK-3046,1 49169U 21082AR  24129.83167243  .00000806  00000-0  75366-4 0  9999,2 49169  69.9988 163.4146 0003049 269.9717  90.1092 14.98335601146138,6950.176,96.107,574.16,569.921,0.0
49169.0,STARLINK-3046,PAYLOAD,2024-05-09 11:58:56,14.9833994,0.0003176,69.9986,161.7317,268.5493,91.5302,6.928e-05,7.34e-06,0.0,0 STARLINK-3046,1 49169U 21082AR  24130.49926713  .00000734  00000-0  69280-4 0  9996,2 49169  69.9986 161.7317 0003176 268.5493  91.5302 14.98339940147448,6950.162,96.106,574.235,569.82,0.0
49169.0,STARLINK-3046,PAYLOAD,2024-05-10 12:00:57,14.98338671,0.0003182,69.9986,159.2068,268.3736,91.7059,0.00015773,1.79e-05,0.0,0 STARLINK-3046,1 49169U 21082AR  24131.50066479  .00001790  00000-0  15773-3 0  9993,2 49169  69.9986 159.2068 0003182 268.3736  91.7059 14.98338671147595,6950.166,96.106,574.243,569.82,0.0
49169.0,STARLINK-3046,PAYLOAD,2024-05-11 04:02:18,14.98336556,0.00031,69.9988,157.5236,268.6655,91.4149,7.8861e-05,8.48e-06,0.0,0 STARLINK-3046,1 49169U 21082AR  24132.16826757  .00000848  00000-0  78861-4 0  9990,2 49169  69.9988 157.5236 0003100 268.6655  91.4149 14.98336556147696,6950.173,96.107,574.192,569.883,0.0
49169.0,STARLINK-3046,PAYLOAD,2024-05-11 12:02:57,14.98355587,0.0002755,70.0001,156.6829,264.191,95.8935,0.00023869,2.758e-05,0.0,0 STARLINK-3046,1 49169U 21082AR  24132.50205335  .00002758  00000-0  23869-3 0  9990,2 49169  70.0001 156.6829 0002755 264.1910  95.8935 14.98355587147745,6950.114,96.105,573.894,570.064,0.0
49169.0,STARLINK-3046,PAYLOAD,2024-05-11 18:27:30,14.98344338,0.0002166,70.0026,156.0072,270.8011,89.29,-7.1984e-05,-9.52e-06,0.0,0 STARLINK-3046,1 49169U 21082AR  24132.76909787 -.00000952  00000-0 -71984-4 0  9998,2 49169  70.0026 156.0072 0002166 270.8011  89.2900 14.98344338147783,6950.149,96.106,573.519,570.508,0.0
49169.0,STARLINK-3046,PAYLOAD,2024-05-12 04:04:18,14.98332401,0.0002682,70.0014,155.0017,254.7156,105.3707,3.0061e-05,2.66e-06,0.0,0 STARLINK-3046,1 49169U 21082AR  24133.16966233  .00000266  00000-0  30061-4 0  9999,2 49169  70.0014 155.0017 0002682 254.7156 105.3707 14.98332401147842,6950.185,96.107,573.915,570.186,0.0
49169.0,STARLINK-3046,PAYLOAD,2024-05-12 12:04:59,14.98324488,0.000318,69.9994,154.1569,266.6743,93.4052,-0.00014264,-1.794e-05,0.0,0 STARLINK-3046,1 49169U 21082AR  24133.50346671 -.00001794  00000-0 -14264-3 0  9990,2 49169  69.9994 154.1569 0003180 266.6743  93.4052 14.98324488147897,6950.21,96.107,574.285,569.865,0.0
49169.0,STARLINK-3046,PAYLOAD,2024-05-12 18:29:31,14.98322667,0.0003178,69.9994,153.4837,266.5581,93.5215,-0.0001568,-1.963e-05,0.0,0 STARLINK-3046,1 49169U 21082AR  24133.77050878 -.00001963  00000-0 -15680-3 0  9991,2 49169  69.9994 153.4837 0003178 266.5581  93.5215 14.98322667146723,6950.216,96.107,574.289,569.872,0.0
49169.0,STARLINK-3046,PAYLOAD,2024-05-13 12:07:01,14.983202,0.0003113,69.9996,151.6323,266.7817,93.2986,-0.00016415,-2.051e-05,0.0,0 STARLINK-3046,1 49169U 21082AR  24134.50487505 -.00002051  00000-0 -16415-3 0  9990,2 49169  69.9996 151.6323 0003113 266.7817  93.2986 14.98320200148048,6950.223,96.108,574.252,569.925,0.0
